{"fetched_at":"2026-06-14T13:59:49Z","count":9400,"tles":[{"name":"SES-21","line1":"1 53961U 22123B   26164.66464337  .00000080  00000+0  00000+0 0  9998","line2":"2 53961   0.0251  23.0914 0001172  22.7574 324.3938  1.00267835  7170","category":"Other"},{"name":"CZ-6A DEB","line1":"1 60822U 24140GZ  24249.26903534  .00001238  00000+0  28487-3 0  9997","line2":"2 60822  89.0284 347.7339 0118036 338.7801  20.8531 14.50588164  3325","category":"Other"},{"name":"STARLINK-37196","line1":"1 69163U 26111R   26164.73702955  .00299868  00000+0  16649-2 0  9992","line2":"2 69163  53.1572 169.0314 0001936  80.2172 279.9068 15.78135609  3710","category":"Starlink"},{"name":"FENGYUN 1C DEB","line1":"1 32133U 99025CSB 26104.25418632  .00000225  00000+0  12844-3 0  9991","line2":"2 32133  98.4369 104.3866 0036622 105.9953 254.5262 14.18183831967110","category":"Weather"},{"name":"STARLINK-2622","line1":"1 48360U 21038H   26164.57391315  .00002891  00000+0  10499-3 0  9993","line2":"2 48360  53.1601 272.1068 0001162  87.6953 272.4181 15.31667010281762","category":"Starlink"},{"name":"STARLINK-30487","line1":"1 57924U 23147M   26164.40073145  .00000882  00000+0  41571-4 0  9996","line2":"2 57924  43.0039 148.2495 0000972 273.5056  86.5685 15.27583477151225","category":"Starlink"},{"name":"COSMOS 2251 DEB","line1":"1 35446U 93036AKQ 26104.22799545  .00000189  00000+0  49439-4 0  9999","line2":"2 35446  74.0447  86.5564 0075687 174.9306 185.2642 14.54765972897896","category":"Other"},{"name":"STARLINK-3185","line1":"1 51144U 22005AS  26164.48959038 -.00000212  00000+0  47490-5 0  9993","line2":"2 51144  53.1590 228.9934 0001158  86.5169 273.5955 15.08830921243201","category":"Starlink"},{"name":"STARLINK-31468","line1":"1 58998U 24036A   26164.22148785 -.00001507  00000+0 -38762-4 0  9994","line2":"2 58998  53.1595 354.1153 0001283  87.5850 272.5297 15.30187979129969","category":"Starlink"},{"name":"STARLINK-1258","line1":"1 45381U 20019X   23361.69361198 -.00001732  00000+0 -97458-4 0  9992","line2":"2 45381  53.0548 151.4084 0001439  94.6442 265.4712 15.06387058208973","category":"Starlink"},{"name":"ONEWEB-0670","line1":"1 55829U 23029AK  26164.63476016  .00000184  00000+0  46276-3 0  9997","line2":"2 55829  87.8946 290.4494 0001723  88.4314 271.7013 13.14503076158966","category":"Other"},{"name":"GJZ 05","line1":"1 62294U 24238E   26164.63833494 -.00000045  00000+0  77187-4 0  9994","line2":"2 62294  59.9124 281.7197 0015489  10.9266 349.2075 13.75191349 75422","category":"Other"},{"name":"STARLINK-34306","line1":"1 64259U 25120D   26164.34339028  .00017552  00000+0  52923-3 0  9990","line2":"2 64259  53.1600  29.3780 0000978  94.2214 265.8900 15.34409109 58557","category":"Starlink"},{"name":"UNKNOWN","line1":"1 87204U          26104.04745738  .00001158  00000+0  46091-3 0  9999","line2":"2 87204  98.5286 327.4163 0045198 326.3771  33.4545 14.29959799642913","category":"Other"},{"name":"COSMOS 2482 (RODNIK-S 4)","line1":"1 39057U 13001A   26164.65907720  .00000042  00000+0  23337-3 0  9990","line2":"2 39057  82.4989 222.5526 0028075  35.2913 325.0019 12.42996147608273","category":"Other"},{"name":"STARLINK-4098","line1":"1 53153U 22083X   26164.51392945  .00000480  00000+0  48243-4 0  9995","line2":"2 53153  53.1600  93.8774 0001398  84.6270 275.4881 15.08836634215827","category":"Starlink"},{"name":"STARLINK-11127 [DTC]","line1":"1 60119U 24118G   26164.57565372  .00003817  00000+0  36390-4 0  9995","line2":"2 60119  53.1588 108.5539 0001350 142.3799 217.7313 15.69680709113059","category":"Starlink"},{"name":"STARLINK-36255","line1":"1 67102U 25299A   26163.81815764  .00018956  00000+0  69618-3 0  9992","line2":"2 67102  43.0058 351.8739 0000571 256.3773 103.7015 15.27600318 27661","category":"Starlink"},{"name":"FLOCK 4S-10","line1":"1 47523U 21006DP  24245.39793950  .09344020  24443-5  17029-2 0  9997","line2":"2 47523  97.3021 313.2758 0013947 270.5204  89.4493 16.32149668200913","category":"Other"},{"name":"STARLINK-33698","line1":"1 63420U 25065X   26164.61424901  .00020315  00000+0  74549-3 0  9991","line2":"2 63420  43.0067 285.0027 0003369 110.3507 249.7707 15.27588387 67518","category":"Starlink"},{"name":"STARLINK-34848","line1":"1 65402U 25191Z   26164.60013807  .00003281  00000+0  23115-3 0  9997","line2":"2 65402  97.3646  35.2271 0002675  75.1419 285.0105 15.05664268 44700","category":"Starlink"},{"name":"STARLINK-37053","line1":"1 68159U 26049T   26164.59003172  .00007987  00000+0  24953-3 0  9992","line2":"2 68159  97.2830 185.9631 0001080  95.4163 264.7203 15.33435013 14344","category":"Starlink"},{"name":"STARLINK-35132","line1":"1 66461U 25262F   26164.58045231  .00019890  00000+0  73005-3 0  9991","line2":"2 66461  43.0032 114.4618 0001758 265.2051  94.8600 15.27593718 33577","category":"Starlink"},{"name":"UCLSAT","line1":"1 42765U 17036A   23323.04012457  .14030009  24427-5  36327-3 0  9992","line2":"2 42765  97.0925   4.4532 0009179 243.7660 116.2700 16.45229930357542","category":"Other"},{"name":"YAOGAN-36 02B","line1":"1 54043U 22133B   26164.32134124  .00009157  00000+0  28584-3 0  9997","line2":"2 54043  34.9941 134.9479 0002497  39.9483 320.1418 15.32426905204252","category":"Other"},{"name":"CZ-6A DEB","line1":"1 60886U 24140KR  24249.30751133  .00005323  00000+0  26897-2 0  9999","line2":"2 60886  89.0354 347.9544 0065191 126.5710 234.1501 14.14963150  2438","category":"Other"},{"name":"STARLINK-37737","line1":"1 69227U 26115S   26164.91668981 -.02467541  00000+0 -20748-1 0  9990","line2":"2 69227  97.2836 182.2317 0001631  92.0835 165.8168 15.73529617  4189","category":"Starlink"},{"name":"FENGYUN 1C DEB","line1":"1 32234U 99025CWG 26096.83002025  .00001650  00000+0  11702-2 0  9996","line2":"2 32234  98.5255 302.9712 0136524  16.8194 343.7430 13.94595324948138","category":"Weather"},{"name":"STARLINK-2633","line1":"1 48435U 21040H   26164.58215363 -.00001190  00000+0 -26590-4 0  9991","line2":"2 48435  53.1598  79.1827 0001195  89.2187 270.8952 15.31694056281545","category":"Starlink"},{"name":"STARLINK-30537","line1":"1 57991U 23153A   26163.93336961  .00011558  00000+0  42923-3 0  9995","line2":"2 57991  43.0004 249.0913 0001243 274.5340  85.5369 15.27552449149360","category":"Starlink"},{"name":"COSMOS 2251 DEB","line1":"1 35658U 93036ANZ 23177.01185456  .00012004  00000+0  22279-2 0  9998","line2":"2 35658  74.0059 296.6209 0012835 235.0477 124.9486 14.65223813745886","category":"Other"},{"name":"STARLINK-3528","line1":"1 51714U 22016A   26164.52730501  .00000335  00000+0  39114-4 0  9993","line2":"2 51714  53.1603 258.7937 0000794  65.7868 294.3207 15.08834781237890","category":"Starlink"},{"name":"ONEWEB-0087","line1":"1 45451U 20020AD  26164.59791419  .00000516  00000+0  14214-2 0  9992","line2":"2 45451  87.8908  21.7565 0001713  75.8898 284.2420 13.11416869302113","category":"Other"},{"name":"STARLINK-5929","line1":"1 55959U 23037AX  26164.62473952  .00000163  00000+0  21472-4 0  9994","line2":"2 55959  69.9995  22.5599 0002951 269.0897  90.9924 14.98330353178842","category":"Starlink"},{"name":"BANDWAGON-2 OBJECT J","line1":"1 62385U 24247J   26164.01346068  .00043118  00000+0  72302-3 0  9993","line2":"2 62385  45.0004 275.4875 0009021 283.2142  76.7743 15.51141789 82805","category":"Other"},{"name":"STARLINK-11696 [DTC]","line1":"1 64324U 25124H   26164.29780348  .00157550  00000+0  12064-2 0  9990","line2":"2 64324  43.0009 172.6901 0001838 240.6189 119.4496 15.70875845 57874","category":"Starlink"},{"name":"UNKNOWN","line1":"1 88220U          23201.76062425  .00006968  00000+0  50302-3 0  9991","line2":"2 88220  97.6647 252.2911 0014791 162.2873 197.8871 15.04328852  3488","category":"Other"},{"name":"GSAT-7","line1":"1 39234U 13044B   26164.92115130 -.00000067  00000+0  00000+0 0  9996","line2":"2 39234   0.0757  96.0298 0003171 189.0780  22.7113  1.00270255 45222","category":"Other"},{"name":"STARLINK-4377","line1":"1 53221U 22084AJ  26164.59103927  .00000736  00000+0  54950-4 0  9996","line2":"2 53221  97.3653 223.8022 0002083 103.3801 256.7659 15.05656614213742","category":"Starlink"},{"name":"STARLINK-37567","line1":"1 68903U 26097J   26164.53135361  .00010400  00000+0  32394-3 0  9994","line2":"2 68903  97.2842   0.0626 0001691  87.7454 272.3982 15.33451933  6923","category":"Starlink"},{"name":"STARLINK-31955","line1":"1 59939U 24106T   26163.67458275 -.00000458  00000+0 -71093-5 0  9993","line2":"2 59939  42.9943 155.7324 0001526 281.2361  78.8319 15.27573895115096","category":"Starlink"},{"name":"STARLINK-35594","line1":"1 66157U 25240M   26164.63085278  .00042659  00000+0  12659-2 0  9996","line2":"2 66157  53.1591 336.0291 0001438 122.9305 237.1836 15.34415956 36690","category":"Starlink"},{"name":"STARLINK-4767","line1":"1 53850U 22114AJ  26164.45041143  .00001450  00000+0  10922-3 0  9998","line2":"2 53850  53.1593 223.7782 0001324  75.9491 284.1648 15.08836906207430","category":"Starlink"},{"name":"STARLINK-32280","line1":"1 60736U 24152S   24271.25001157 -.01520171  00000+0 -40591-1 0  9991","line2":"2 60736  53.1595 203.1604 0001207  72.2150 216.7820 15.40739313  5899","category":"Starlink"},{"name":"STARLINK-36070","line1":"1 66864U 25281S   26164.29129757  .00026544  00000+0  96829-3 0  9996","line2":"2 66864  42.9974 163.8162 0002234 114.8115 245.2969 15.27658410 30803","category":"Starlink"},{"name":"ONEWEB-0208","line1":"1 48243U 21031AK  26164.58242832  .00000083  00000+0  18818-3 0  9990","line2":"2 48243  87.8964 290.4237 0001868 111.3426 248.7904 13.14503440247836","category":"Other"},{"name":"CZ-6A R/B","line1":"1 57835U 23139F   23283.56982011  .00000568  00000+0  17713-3 0  9996","line2":"2 57835  85.9993 339.2818 0060123 269.1803  90.2505 14.38192744  4365","category":"Other"},{"name":"STARLINK-34141","line1":"1 64020U 25101AC  26164.34585392  .00024071  00000+0  88068-3 0  9995","line2":"2 64020  43.0011 177.8212 0002676 282.9246  77.1307 15.27604610 61683","category":"Starlink"}]}